[{"OBJECT_NAME":"STARLINK-4406","OBJECT_ID":"2022-105V","EPOCH":"2026-03-09T16:11:57.725088","MEAN_MOTION":15.05688645,"ECCENTRICITY":0.00032736,"INCLINATION":97.5995,"RA_OF_ASC_NODE":311.2806,"ARG_OF_PERICENTER":72.4901,"MEAN_ANOMALY":287.6683,"EPHEMERIS_TYPE":0,"CLASSIFICATION_TYPE":"U","NORAD_CAT_ID":53667,"ELEMENT_SET_NO":999,"REV_AT_EPOCH":19330,"BSTAR":0.00038130822,"MEAN_MOTION_DOT":5.451e-5,"MEAN_MOTION_DDOT":0},{"OBJECT_NAME":"RAAF M1","OBJECT_ID":"2018-099X","EPOCH":"2026-03-09T15:51:10.230048","MEAN_MOTION":15.07065376,"ECCENTRICITY":0.00134971,"INCLINATION":97.4534,"RA_OF_ASC_NODE":114.8325,"ARG_OF_PERICENTER":21.6261,"MEAN_ANOMALY":338.5534,"EPHEMERIS_TYPE":0,"CLASSIFICATION_TYPE":"U","NORAD_CAT_ID":43779,"ELEMENT_SET_NO":999,"REV_AT_EPOCH":39714,"BSTAR":0.00026511092,"MEAN_MOTION_DOT":3.923e-5,"MEAN_MOTION_DDOT":0}]
